1 02807U 67048A   21142.79693738  .00000030  00000-0  31609-4 0  9990
2 02807  89.6445  50.4257 0018163 248.7524 172.7538 13.50259811658051
1 02807U 67048A   21143.48697855  .00000034  00000-0  36631-4 0  9995
2 02807  89.6445  50.4009 0018181 246.5329 287.2240 13.50259875658147
1 02807U 67048A   21143.97221855  .00000025  00000-0  22522-4 0  9996
2 02807  89.6445  50.3835 0018193 244.9626 126.1116 13.50259863658216
1 02807U 67048A   21144.52445627  .00000032  00000-0  34314-4 0  9993
2 02807  89.6444  50.3636 0018210 243.1960 290.6738 13.50259936658281
1  2807U 67048A   21144.52445627  .00000032  00000-0  34314-4 0  9993
2  2807  89.6444  50.3636 0018210 243.1960 290.6738 13.50259936658786
1 02807U 67048A   21145.48787083  .00000038  00000-0  44143-4 0  9991
2 02807  89.6443  50.3289 0018247 240.1121 294.0684 13.50259995658418
1 02807U 67048A   21146.52521238  .00000048  00000-0  58402-4 0  9999
2 02807  89.6443  50.2916 0018290 236.7969 296.8358 13.50260122658550
1 02807U 67048A   21146.71768348  .00000047  00000-0  58108-4 0  9997
2 02807  89.6443  50.2846 0018299 236.1777 152.4883 13.50260144658589
1  2807U 67048A   21146.71768348  .00000047  00000-0  58108-4 0  9997
2  2807  89.6443  50.2846 0018299 236.1777 152.4883 13.50260144659074
1 02807U 67048A   21147.48849797  .00000059  00000-0  77050-4 0  9990
2 02807  89.6442  50.2569 0018338 233.7323 299.5854 13.50260225658686
1 02807U 67048A   21147.75416714  .00000061  00000-0  79349-4 0  9995
2 02807  89.6442  50.2473 0018352 232.8880 151.0626 13.50260272658720
1 02807U 67048A   21148.52574578  .00000067  00000-0  89419-4 0  9999
2 02807  89.6442  50.2196 0018389 230.4179 301.8972 13.50260369658824
1  2807U 67048A   21148.80133687  .00000067  00000-0  88925-4 0  9993
2  2807  89.6442  50.2097 0018405 229.5431 201.6064 13.50260420659359
1 02807U 67048A   21148.86977429  .00000069  00000-0  92113-4 0  9995
2 02807  89.6442  50.2072 0018411 229.3317 174.2900 13.50260428658878
1 02807U 67048A   21149.48936873  .00000071  00000-0  95462-4 0  9995
2 02807  89.6442  50.1849 0018446 227.3580 306.2820 13.50260476658957
1 02807U 67048A   21149.68751633  .00000069  00000-0  92077-4 0  9992
2 02807  89.6442  50.1778 0018459 226.7320 189.5184 13.50260503658986
1 02807U 67048A   21150.52724258  .00000066  00000-0  87057-4 0  9999
2 02807  89.6441  50.1476 0018510 224.0789 311.6010 13.50260589659091
1 02807U 67048A   21150.87072017  .00000062  00000-0  81054-4 0  9993
2 02807  89.6441  50.1352 0018535 223.0000 181.3103 13.50260632659146
1  2807U 67048A   21151.18133250  .00000060  00000-0  78605-4 0  9991
2  2807  89.6441  50.1240 0018555 222.0100 251.2697 13.50260661659680
1 02807U 67048A   21151.49008535  .00000065  00000-0  85507-4 0  9996
2 02807  89.6441  50.1129 0018574 221.0266 312.1891 13.50260715659222
1 02807U 67048A   21151.76327390  .00000057  00000-0  72717-4 0  9999
2 02807  89.6441  50.1031 0018594 220.1695 200.2092 13.50260719659260
1 02807U 67048A   21152.45357825  .00000054  00000-0  68366-4 0  9994
2 02807  89.6440  50.0783 0018646 218.0251 315.8851 13.50260793659352
1 02807U 67048A   21152.87164485  .00000047  00000-0  57527-4 0  9997
2 02807  89.6440  50.0632 0018678 216.7140 188.1839 13.50260832659410
1 02807U 67048A   21153.49107586  .00000054  00000-0  68251-4 0  9999
2 02807  89.6440  50.0409 0018722 214.7601 319.3637 13.50260946659490
1  2807U 67048A   21153.49107586  .00000054  00000-0  68251-4 0  9999
2  2807  89.6440  50.0409 0018722 214.7601 319.3637 13.50260946659995
1 02807U 67048A   21154.45432935  .00000047  00000-0  57498-4 0  9998
2 02807  89.6439  50.0063 0018801 211.7756 321.8801 13.50261008659626
1 02807U 67048A   21155.25767316  .00000042  00000-0  49986-4 0  9999
2 02807  89.6439  49.9773 0018869 209.3012 267.0380 13.50261088659736
1  2807U 67048A   21156.22027734  .00000048  00000-0  59427-4 0  9997
2  2807  89.6439  49.9426 0018954 206.3513 266.3659 13.50261181660365
1 02807U 67048A   21156.45512932  .00000051  00000-0  64059-4 0  9992
2 02807  89.6438  49.9342 0018974 205.6136 328.0260 13.50261199659895
1 02807U 67048A   21156.94044959  .00000048  00000-0  59132-4 0  9997
2 02807  89.6438  49.9167 0019016 204.0905 167.2587 13.50261221659964
1 02807U 67048A   21157.26015288  .00000049  00000-0  60748-4 0  9992
2 02807  89.6438  49.9052 0019045 203.1310 281.3523 13.50261250660006
1 02807U 67048A   21157.76650602  .00000049  00000-0  60316-4 0  9993
2 02807  89.6438  49.8869 0019091 201.5896 222.7818 13.50261259660075
1 02807U 67048A   21158.45596647  .00000058  00000-0  74567-4 0  9991
2 02807  89.6437  49.8621 0019157 199.4943 334.3098 13.50261308660166
1  2807U 67048A   21158.45596647  .00000058  00000-0  74567-4 0  9991
2  2807  89.6437  49.8621 0019157 199.4943 334.3098 13.50261308660661
1 02807U 67048A   21158.94116095  .00000059  00000-0  76171-4 0  9994
2 02807  89.6437  49.8446 0019205 198.0245 172.8783 13.50261349660234
1 02807U 67048A   21159.49365006  .00000061  00000-0  79441-4 0  9999
2 02807  89.6436  49.8247 0019260 196.3418 338.5801 13.50261380660301
1 02807U 67048A   21159.76816022  .00000058  00000-0  74747-4 0  9998
2 02807  89.6436  49.8148 0019287 195.5212 232.9847 13.50261393660348
1 02807U 67048A   21160.45675964  .00000071  00000-0  94755-4 0  9990
2 02807  89.6435  49.7900 0019356 193.4538 340.3021 13.50261470660431
1  2807U 67048A   21160.45675964  .00000071  00000-0  94755-4 0  9990
2  2807  89.6435  49.7900 0019356 193.4538 340.3021 13.50261470660936
1 02807U 67048A   21160.94200606  .00000071  00000-0  95170-4 0  9993
2 02807  89.6435  49.7725 0019405 192.0019 179.1053 13.50261512660508
1 02807U 67048A   21161.61952767  .00000070  00000-0  92662-4 0  9992
2 02807  89.6434  49.7480 0019473 189.9944 232.5468 13.50261585660595
1 02807U 67048A   21161.76902597  .00000069  00000-0  91986-4 0  9990
2 02807  89.6433  49.7426 0019488 189.5542 239.2574 13.50261606660619
1 02807U 67048A   21162.45741309  .00000080  00000-0  10876-3 0  9990
2 02807  89.6432  49.7178 0019558 187.4972 345.5339 13.50261715660705
1 02807U 67048A   21162.73032226  .00000078  00000-0  10542-3 0  9999
2 02807  89.6431  49.7079 0019588 186.6867 232.1512 13.50261760660749
1  2807U 67048A   21162.73032226  .00000078  00000-0  10542-3 0  9999
2  2807  89.6431  49.7079 0019588 186.6867 232.1512 13.50261760661234
1 02807U 67048A   21163.42092512  .00000080  00000-0  10907-3 0  9998
2 02807  89.6431  49.6830 0019659 184.6386 349.1834 13.50261857660839
1 02807U 67048A   21163.90628606  .00000074  00000-0  99001-4 0  9996
2 02807  89.6430  49.6655 0019714 183.1881 188.5424 13.50261904660900
1 02807U 67048A   21164.45838868  .00000078  00000-0  10603-3 0  9994
2 02807  89.6429  49.6456 0019773 181.5595 352.3143 13.50262002660972
1 02807U 67048A   21164.73180715  .00000069  00000-0  91431-4 0  9995
2 02807  89.6429  49.6357 0019807 180.7335 241.4214 13.50261999661010
1  2807U 67048A   21164.73180715  .00000069  00000-0  91431-4 0  9995
2  2807  89.6429  49.6357 0019807 180.7335 241.4214 13.50261999661504
1 02807U 67048A   21165.42170402  .00000068  00000-0  90464-4 0  9998
2 02807  89.6428  49.6108 0019879 178.7285 354.9814 13.50262086661107
1 02807U 67048A   21165.90718194  .00000058  00000-0  74960-4 0  9999
2 02807  89.6428  49.5932 0019932 177.3206 194.8667 13.50262119661170
1 02807U 67048A   21166.58452249  .00000052  00000-0  65478-4 0  9998
2 02807  89.6427  49.5687 0019986 175.3835 247.3592 13.50262102661264
1  2807U 67048A   21166.73266637  .00000057  00000-0  72741-4 0  9995
2  2807  89.6427  49.5634 0019999 174.9660 247.4674 13.50262140661771
1 02807U 67048A   21166.94448891  .00000054  00000-0  67478-4 0  9990
2 02807  89.6427  49.5557 0020023 174.3537 197.1249 13.50262150661312
1 02807U 67048A   21167.62095699  .00000050  00000-0  62084-4 0  9994
2 02807  89.6426  49.5313 0020100 172.3913 245.4050 13.50262234661403
1 02807U 67048A   21167.90780303  .00000046  00000-0  55271-4 0  9993
2 02807  89.6426  49.5209 0020131 171.5634 199.7463 13.50262246661448
1 02807U 67048A   21168.58522890  .00000039  00000-0  45268-4 0  9990
2 02807  89.6426  49.4964 0020203 169.6221 252.6582 13.50262289661533
1  2807U 67048A   21168.73380970  .00000035  00000-0  38957-4 0  9991
2  2807  89.6426  49.4911 0020221 169.1879 254.9057 13.50262282662041
1 02807U 67048A   21168.94538316  .00000030  00000-0  30231-4 0  9995
2 02807  89.6426  49.4834 0020243 168.5824 203.3460 13.50262229661587
1 02807U 67048A   21169.26412762  .00000038  00000-0  43348-4 0  9998
2 02807  89.6425  49.4719 0020280 167.6595 312.7465 13.50262307661626
1 02807U 67048A   21169.62202951  .00000037  00000-0  41105-4 0  9993
2 02807  89.6425  49.4589 0020321 166.6328 252.4795 13.50262324661670
1 02807U 67048A   21170.46055613  .00000041  00000-0  46997-4 0  9997
2 02807  89.6424  49.4286 0020409 164.2467   8.4726 13.50262382661787
1 02807U 67048A   21170.94589712  .00000042  00000-0  48741-4 0  9992
2 02807  89.6424  49.4110 0020463 162.8660 207.6655 13.50262403661858
1  2807U 67048A   21171.42403659  .00000048  00000-0  58764-4 0  9993
2  2807  89.6423  49.3937 0020516 161.5055  11.8529 13.50262446662411
1 02807U 67048A   21172.58638074  .00000052  00000-0  65074-4 0  9999
2 02807  89.6422  49.3516 0020645 158.2159 261.8728 13.50262546662075
1  2807U 67048A   21172.65914875  .00000051  00000-0  63591-4 0  9994
2  2807  89.6421  49.3489 0020653 158.0122 255.5874 13.50262550662572
1 02807U 67048A   21173.12417159  .00000056  00000-0  70982-4 0  9997
2 02807  89.6421  49.3321 0020708 156.6910 356.0143 13.50262579662147
1 02807U 67048A   21173.62444066  .00000063  00000-0  82024-4 0  9997
2 02807  89.6421  49.3140 0020756 155.2960 267.7437 13.50262655662216
1 02807U 67048A   21174.58713455  .00000064  00000-0  83818-4 0  9997
2 02807  89.6420  49.2791 0020860 152.5920 267.2668 13.50262742662340
1 02807U 67048A   21174.73761407  .00000063  00000-0  81764-4 0  9991
2 02807  89.6420  49.2736 0020873 152.1761 278.7205 13.50262758662365
